CCSDS_OEM_VERS = 1.0
CREATION_DATE  = 2017-05-11T11:02:13
ORIGINATOR     = GMAT USER

META_START
OBJECT_NAME          = MOPSSat_alt_35785_km_RAAN_0_085
OBJECT_ID            = SatId
CENTER_NAME          = Earth
REF_FRAME            = EME2000
TIME_SYSTEM          = UTC
START_TIME           = 2017-01-01T00:00:00.000
USEABLE_START_TIME   = 2017-01-01T00:00:00.000
USEABLE_STOP_TIME    = 2017-01-02T00:00:00.000
STOP_TIME            = 2017-01-02T00:00:00.000
INTERPOLATION        = Lagrange
INTERPOLATION_DEGREE = 7 
META_STOP


                                                                                   

2017-01-01T01:40:50.000   3.762704280113989e+04   1.816724146273115e+04   3.141034601921859e+00  -1.336991201229045e+00   2.799670196321784e+00   4.810771805388381e-04
2017-01-01T01:41:00.000   3.761366260977251e+04   1.819523319808048e+04   3.145844501733469e+00  -1.339046968734887e+00   2.798676665406271e+00   4.809027516847206e-04
2017-01-01T01:41:10.000   3.760026186457938e+04   1.822321499032669e+04   3.150652656087264e+00  -1.341101984909822e+00   2.797681614743315e+00   4.807280956838863e-04
2017-01-01T01:41:20.000   3.758684057301774e+04   1.825118682440397e+04   3.155459062734377e+00  -1.343156248624507e+00   2.796685044915768e+00   4.805532126328804e-04
2017-01-01T01:41:30.000   3.757339874255712e+04   1.827914868525002e+04   3.160263719426520e+00  -1.345209758749913e+00   2.795686956507441e+00   4.803781026283772e-04
2017-01-01T01:41:40.000   3.755993638068458e+04   1.830710055779613e+04   3.165066623914257e+00  -1.347262514156599e+00   2.794687350103465e+00   4.802027657672396e-04
2017-01-01T01:41:50.000   3.754645349491668e+04   1.833504242693863e+04   3.169867773942111e+00  -1.349314513712605e+00   2.793686226291201e+00   4.800272021466940e-04
2017-01-01T01:42:00.000   3.753295009281181e+04   1.836297427751739e+04   3.174667167244865e+00  -1.351365756281886e+00   2.792683585661139e+00   4.798514118644736e-04
2017-01-01T01:42:10.000   3.751942618192994e+04   1.839089609439761e+04   3.179464801561620e+00  -1.353416240730313e+00   2.791679428803918e+00   4.796753950182983e-04
2017-01-01T01:42:20.000   3.750588177001275e+04   1.841880786210296e+04   3.184260674572754e+00  -1.355465965898732e+00   2.790673756323697e+00   4.794991517082034e-04
2017-01-01T01:42:30.000   3.749231686476569e+04   1.844670956526044e+04   3.189054783976361e+00  -1.357514930635633e+00   2.789666568821976e+00   4.793226820337200e-04
2017-01-01T01:42:40.000   3.747873147393882e+04   1.847460118843476e+04   3.193847127459803e+00  -1.359563133784991e+00   2.788657866903595e+00   4.791459860949217e-04
2017-01-01T01:42:50.000   3.746512560501455e+04   1.850248271677023e+04   3.198637702809974e+00  -1.361610574233396e+00   2.787647651153550e+00   4.789690639883730e-04
2017-01-01T01:43:00.000   3.745149926551888e+04   1.853035413535038e+04   3.203426507803303e+00  -1.363657250863032e+00   2.786635922160102e+00   4.787919158111682e-04
2017-01-01T01:43:10.000   3.743785246295129e+04   1.855821542934336e+04   3.208213540230708e+00  -1.365703162562359e+00   2.785622680509576e+00   4.786145416600226e-04
2017-01-01T01:43:20.000   3.742418520495862e+04   1.858606658363971e+04   3.212998797835362e+00  -1.367748308199497e+00   2.784607926799259e+00   4.784369416335305e-04
2017-01-01T01:43:30.000   3.741049749920670e+04   1.861390758312157e+04   3.217782278358972e+00  -1.369792686642014e+00   2.783591661627890e+00   4.782591158304988e-04
2017-01-01T01:43:40.000   3.739678935337935e+04   1.864173841266231e+04   3.222563979541676e+00  -1.371836296756885e+00   2.782573885595559e+00   4.780810643499321e-04
2017-01-01T01:43:50.000   3.738306077531278e+04   1.866955905686014e+04   3.227343899076309e+00  -1.373879137390941e+00   2.781554599313703e+00   4.779027872927768e-04
2017-01-01T01:44:00.000   3.736931177281549e+04   1.869736950039733e+04   3.232122034670110e+00  -1.375921207397244e+00   2.780533803391732e+00   4.777242847595861e-04
2017-01-01T01:44:10.000   3.735554235373888e+04   1.872516972789859e+04   3.236898384020377e+00  -1.377962505624681e+00   2.779511498442273e+00   4.775455568514341e-04
2017-01-01T01:44:20.000   3.734175252566667e+04   1.875295972455846e+04   3.241672944922274e+00  -1.380003030964042e+00   2.778487685058099e+00   4.773666036658868e-04
2017-01-01T01:44:30.000   3.732794229622528e+04   1.878073947551380e+04   3.246445715161009e+00  -1.382042782301937e+00   2.777462363835185e+00   4.771874253010285e-04
2017-01-01T01:44:40.000   3.731411167301402e+04   1.880850896598586e+04   3.251216692536254e+00  -1.384081758531230e+00   2.776435535367525e+00   4.770080218545564e-04
2017-01-01T01:44:50.000   3.730026066378140e+04   1.883626818091927e+04   3.255985874800098e+00  -1.386119958524529e+00   2.775407200260216e+00   4.768283934260647e-04
2017-01-01T01:45:00.000   3.728638927629498e+04   1.886401710525046e+04   3.260753259703186e+00  -1.388157381153896e+00   2.774377359119798e+00   4.766485401153609e-04
2017-01-01T01:45:10.000   3.727249751834034e+04   1.889175572390711e+04   3.265518844994614e+00  -1.390194025290810e+00   2.773346012554174e+00   4.764684620224493e-04
2017-01-01T01:45:20.000   3.725858539785726e+04   1.891948402154282e+04   3.270282628376346e+00  -1.392229889786684e+00   2.772313161182726e+00   4.762881592493069e-04
2017-01-01T01:45:30.000   3.724465292275725e+04   1.894720198289510e+04   3.275044607564718e+00  -1.394264973499149e+00   2.771278805622762e+00   4.761076318975075e-04
2017-01-01T01:45:40.000   3.723070010099651e+04   1.897490959264144e+04   3.279804780265710e+00  -1.396299275281490e+00   2.770242946494942e+00   4.759268800691719e-04
2017-01-01T01:45:50.000   3.721672694025578e+04   1.900260683603516e+04   3.284563144284183e+00  -1.398332794029320e+00   2.769205584399493e+00   4.757459038628033e-04
2017-01-01T01:46:00.000   3.720273344826103e+04   1.903029369826792e+04   3.289319697414357e+00  -1.400365528633789e+00   2.768166719940036e+00   4.755647033774601e-04
2017-01-01T01:46:10.000   3.718871963270098e+04   1.905797016463436e+04   3.294074437468103e+00  -1.402397477993663e+00   2.767126353717451e+00   4.753832787116787e-04
2017-01-01T01:46:20.000   3.717468550144842e+04   1.908563622008905e+04   3.298827362198815e+00  -1.404428640982798e+00   2.766084486346313e+00   4.752016299663625e-04
2017-01-01T01:46:30.000   3.716063106237796e+04   1.911329184961235e+04   3.303578469364273e+00  -1.406459016476998e+00   2.765041118441355e+00   4.750197572423986e-04
2017-01-01T01:46:40.000   3.714655632340788e+04   1.914093703812597e+04   3.308327756712132e+00  -1.408488603347822e+00   2.763996250620583e+00   4.748376606412097e-04
2017-01-01T01:46:50.000   3.713246129248506e+04   1.916857177052636e+04   3.313075221985665e+00  -1.410517400465033e+00   2.762949883504153e+00   4.746553402645378e-04
2017-01-01T01:47:00.000   3.711834597757606e+04   1.919619603169956e+04   3.317820862926301e+00  -1.412545406697686e+00   2.761902017713707e+00   4.744727962143470e-04
2017-01-01T01:47:10.000   3.710421038665005e+04   1.922380980655425e+04   3.322564677279318e+00  -1.414572620916557e+00   2.760852653871111e+00   4.742900285925987e-04
2017-01-01T01:47:20.000   3.709005452767222e+04   1.925141308003788e+04   3.327306662796603e+00  -1.416599041995330e+00   2.759801792597957e+00   4.741070375011794e-04
2017-01-01T01:47:30.000   3.707587840858556e+04   1.927900583716841e+04   3.332046817242104e+00  -1.418624668812918e+00   2.758749434514221e+00   4.739238230416528e-04
2017-01-01T01:47:40.000   3.706168203735466e+04   1.930658806295077e+04   3.336785138377485e+00  -1.420649500247339e+00   2.757695580241507e+00   4.737403853158283e-04
2017-01-01T01:47:50.000   3.704746542177649e+04   1.933415974273934e+04   3.341521624024387e+00  -1.422673535202322e+00   2.756640230389004e+00   4.735567244233058e-04
2017-01-01T01:48:00.000   3.703322856970922e+04   1.936172086179848e+04   3.346256271988942e+00  -1.424696772575045e+00   2.755583385570467e+00   4.733728404644428e-04
2017-01-01T01:48:10.000   3.701897148898581e+04   1.938927140546880e+04   3.350989080090321e+00  -1.426719211268339e+00   2.754525046397811e+00   4.731887335392353e-04
2017-01-01T01:48:20.000   3.700469418774730e+04   1.941681135852287e+04   3.355720046050071e+00  -1.428740850143398e+00   2.753465213505849e+00   4.730044037516371e-04
2017-01-01T01:48:30.000   3.699039667410991e+04   1.944434070580960e+04   3.360449167602796e+00  -1.430761688067078e+00   2.752403887527565e+00   4.728198512052418e-04
2017-01-01T01:48:40.000   3.697607895625051e+04   1.947185943208781e+04   3.365176442467571e+00  -1.432781723899679e+00   2.751341069100488e+00   4.726350760043977e-04
2017-01-01T01:48:50.000   3.696174104218049e+04   1.949936752246683e+04   3.369901868423638e+00  -1.434800956527292e+00   2.750276758849880e+00   4.724500782512672e-04
2017-01-01T01:49:00.000   3.694738293993215e+04   1.952686496204274e+04   3.374625443247911e+00  -1.436819384835092e+00   2.749210957402580e+00   4.722648580482505e-04
2017-01-01T01:49:10.000   3.693300465751566e+04   1.955435173598232e+04   3.379347164729384e+00  -1.438837007713503e+00   2.748143665383818e+00   4.720794154974270e-04
2017-01-01T01:49:20.000   3.691860620293464e+04   1.958182782948983e+04   3.384067030663450e+00  -1.440853824055761e+00   2.747074883418357e+00   4.718937507007672e-04
2017-01-01T01:49:30.000   3.690418758419533e+04   1.960929322779236e+04   3.388785038849361e+00  -1.442869832756834e+00   2.746004612131180e+00   4.717078637602391e-04
2017-01-01T01:49:40.000   3.688974880932377e+04   1.963674791610687e+04   3.393501187084579e+00  -1.444885032711004e+00   2.744932852148770e+00   4.715217547780342e-04
2017-01-01T01:49:50.000   3.687528988637272e+04   1.966419187962424e+04   3.398215473162028e+00  -1.446899422810701e+00   2.743859604099618e+00   4.713354238566521e-04
